STARLETTE               
1 07646U 75010A   26063.77325467 -.00000134  00000+0  93655-5 0  9995
2 07646  49.8226 156.7369 0205556  78.1029 284.2832 13.82349039580096
LAGEOS 1                
1 08820U 76039A   26063.47233889 -.00000001  00000+0  00000+0 0  9994
2 08820 109.8184 143.4955 0044659 324.7054  36.4143  6.38664877906455
AJISAI (EGS)            
1 16908U 86061A   26063.74792667 -.00000072  00000+0  17578-3 0  9990
2 16908  50.0080 108.5442 0011253 274.3050 206.4152 12.44515577467385
COSMOS 1989 (ETALON 1)  
1 19751U 89001C   26063.78459800  .00000009  00000+0  00000+0 0  9996
2 19751  64.8844  75.7648 0023408 217.5711 273.1253  2.13156058289145
COSMOS 2024 (ETALON 2)  
1 20026U 89039C   26063.18779880 -.00000046  00000+0  00000+0 0  9993
2 20026  64.9977 314.1551 0020465 213.4075 318.7281  2.13204552286261
LAGEOS 2                
1 22195U 92070B   26063.18295782 -.00000009  00000+0  00000+0 0  9994
2 22195  52.6796 333.0220 0137776 141.4162  15.2959  6.47293323788620
STELLA                  
1 22824U 93061B   26063.82840324 -.00000005  00000+0  16248-4 0  9995
2 22824  98.7851 127.6504 0006474 171.1808 281.1850 14.27467417689887
LARETS                  
1 27944U 03042F   26063.80872572  .00000121  00000+0  32813-4 0  9995
2 27944  98.4006 223.8937 0012380   7.8103 352.3290 14.63847147198098
LARES                   
1 38077U 12006A   26063.64247477 -.00000008  00000+0  18741-3 0  9994
2 38077  69.4890 110.8210 0007544 155.8056 204.3326 12.54932277643955
LARES-2                 
1 53105U 22080A   26051.71998157 -.00000019  00000+0  00000+0 0  9996
2 53105  70.1780 345.2672 0005158   0.9590 359.1035  6.38965205 84226
