[{"OBJECT_NAME":"STARLETTE","OBJECT_ID":"1975-010A","EPOCH":"2026-03-04T18:33:29.203488","MEAN_MOTION":13.82349039,"ECCENTRICITY":0.0205556,"INCLINATION":49.8226,"RA_OF_ASC_NODE":156.7369,"ARG_OF_PERICENTER":78.1029,"MEAN_ANOMALY":284.2832,"EPHEMERIS_TYPE":0,"CLASSIFICATION_TYPE":"U","NORAD_CAT_ID":7646,"ELEMENT_SET_NO":999,"REV_AT_EPOCH":58009,"BSTAR":9.3655e-6,"MEAN_MOTION_DOT":-1.34e-6,"MEAN_MOTION_DDOT":0},{"OBJECT_NAME":"LAGEOS 1","OBJECT_ID":"1976-039A","EPOCH":"2026-03-04T11:20:10.080096","MEAN_MOTION":6.38664877,"ECCENTRICITY":0.00446594,"INCLINATION":109.8184,"RA_OF_ASC_NODE":143.4955,"ARG_OF_PERICENTER":324.7054,"MEAN_ANOMALY":36.4143,"EPHEMERIS_TYPE":0,"CLASSIFICATION_TYPE":"U","NORAD_CAT_ID":8820,"ELEMENT_SET_NO":999,"REV_AT_EPOCH":90645,"BSTAR":0,"MEAN_MOTION_DOT":-1.0e-8,"MEAN_MOTION_DDOT":0},{"OBJECT_NAME":"AJISAI (EGS)","OBJECT_ID":"1986-061A","EPOCH":"2026-03-04T17:57:00.864288","MEAN_MOTION":12.44515577,"ECCENTRICITY":0.0011253,"INCLINATION":50.008,"RA_OF_ASC_NODE":108.5442,"ARG_OF_PERICENTER":274.305,"MEAN_ANOMALY":206.4152,"EPHEMERIS_TYPE":0,"CLASSIFICATION_TYPE":"U","NORAD_CAT_ID":16908,"ELEMENT_SET_NO":999,"REV_AT_EPOCH":46738,"BSTAR":0.00017578,"MEAN_MOTION_DOT":-7.2e-7,"MEAN_MOTION_DDOT":0},{"OBJECT_NAME":"COSMOS 1989 (ETALON 1)","OBJECT_ID":"1989-001C","EPOCH":"2026-03-04T18:49:49.267200","MEAN_MOTION":2.13156058,"ECCENTRICITY":0.0023408,"INCLINATION":64.8844,"RA_OF_ASC_NODE":75.7648,"ARG_OF_PERICENTER":217.5711,"MEAN_ANOMALY":273.1253,"EPHEMERIS_TYPE":0,"CLASSIFICATION_TYPE":"U","NORAD_CAT_ID":19751,"ELEMENT_SET_NO":999,"REV_AT_EPOCH":28914,"BSTAR":0,"MEAN_MOTION_DOT":9.0e-8,"MEAN_MOTION_DDOT":0},{"OBJECT_NAME":"COSMOS 2024 (ETALON 2)","OBJECT_ID":"1989-039C","EPOCH":"2026-03-04T04:30:25.816320","MEAN_MOTION":2.13204552,"ECCENTRICITY":0.0020465,"INCLINATION":64.9977,"RA_OF_ASC_NODE":314.1551,"ARG_OF_PERICENTER":213.4075,"MEAN_ANOMALY":318.7281,"EPHEMERIS_TYPE":0,"CLASSIFICATION_TYPE":"U","NORAD_CAT_ID":20026,"ELEMENT_SET_NO":999,"REV_AT_EPOCH":28626,"BSTAR":0,"MEAN_MOTION_DOT":-4.6e-7,"MEAN_MOTION_DDOT":0},{"OBJECT_NAME":"LAGEOS 2","OBJECT_ID":"1992-070B","EPOCH":"2026-03-04T04:23:27.555648","MEAN_MOTION":6.47293323,"ECCENTRICITY":0.0137776,"INCLINATION":52.6796,"RA_OF_ASC_NODE":333.022,"ARG_OF_PERICENTER":141.4162,"MEAN_ANOMALY":15.2959,"EPHEMERIS_TYPE":0,"CLASSIFICATION_TYPE":"U","NORAD_CAT_ID":22195,"ELEMENT_SET_NO":999,"REV_AT_EPOCH":78862,"BSTAR":0,"MEAN_MOTION_DOT":-9.0e-8,"MEAN_MOTION_DDOT":0},{"OBJECT_NAME":"STELLA","OBJECT_ID":"1993-061B","EPOCH":"2026-03-04T19:52:54.039936","MEAN_MOTION":14.27467417,"ECCENTRICITY":0.0006474,"INCLINATION":98.7851,"RA_OF_ASC_NODE":127.6504,"ARG_OF_PERICENTER":171.1808,"MEAN_ANOMALY":281.185,"EPHEMERIS_TYPE":0,"CLASSIFICATION_TYPE":"U","NORAD_CAT_ID":22824,"ELEMENT_SET_NO":999,"REV_AT_EPOCH":68988,"BSTAR":1.6248e-5,"MEAN_MOTION_DOT":-5.0e-8,"MEAN_MOTION_DDOT":0},{"OBJECT_NAME":"LARETS","OBJECT_ID":"2003-042F","EPOCH":"2026-03-04T19:24:33.902208","MEAN_MOTION":14.63847147,"ECCENTRICITY":0.001238,"INCLINATION":98.4006,"RA_OF_ASC_NODE":223.8937,"ARG_OF_PERICENTER":7.8103,"MEAN_ANOMALY":352.329,"EPHEMERIS_TYPE":0,"CLASSIFICATION_TYPE":"U","NORAD_CAT_ID":27944,"ELEMENT_SET_NO":999,"REV_AT_EPOCH":19809,"BSTAR":3.2813e-5,"MEAN_MOTION_DOT":1.21e-6,"MEAN_MOTION_DDOT":0},{"OBJECT_NAME":"LARES","OBJECT_ID":"2012-006A","EPOCH":"2026-03-04T15:25:09.820128","MEAN_MOTION":12.54932277,"ECCENTRICITY":0.0007544,"INCLINATION":69.489,"RA_OF_ASC_NODE":110.821,"ARG_OF_PERICENTER":155.8056,"MEAN_ANOMALY":204.3326,"EPHEMERIS_TYPE":0,"CLASSIFICATION_TYPE":"U","NORAD_CAT_ID":38077,"ELEMENT_SET_NO":999,"REV_AT_EPOCH":64395,"BSTAR":0.00018741,"MEAN_MOTION_DOT":-8.0e-8,"MEAN_MOTION_DDOT":0},{"OBJECT_NAME":"LARES-2","OBJECT_ID":"2022-080A","EPOCH":"2026-02-20T17:16:46.407648","MEAN_MOTION":6.38965205,"ECCENTRICITY":0.00051588,"INCLINATION":70.178,"RA_OF_ASC_NODE":345.2672,"ARG_OF_PERICENTER":0.959,"MEAN_ANOMALY":359.1035,"EPHEMERIS_TYPE":0,"CLASSIFICATION_TYPE":"U","NORAD_CAT_ID":53105,"ELEMENT_SET_NO":999,"REV_AT_EPOCH":8422,"BSTAR":0,"MEAN_MOTION_DOT":-1.9e-7,"MEAN_MOTION_DDOT":0}]
